[{"OBJECT_NAME":"SHIJIAN-6 03B (SJ-6 03B)","OBJECT_ID":"2008-053B","EPOCH":"2026-03-09T23:28:00.216192","MEAN_MOTION":15.03879314,"ECCENTRICITY":0.00200774,"INCLINATION":97.8673,"RA_OF_ASC_NODE":87.2117,"ARG_OF_PERICENTER":21.0315,"MEAN_ANOMALY":339.1731,"EPHEMERIS_TYPE":0,"CLASSIFICATION_TYPE":"U","NORAD_CAT_ID":33409,"ELEMENT_SET_NO":999,"REV_AT_EPOCH":94783,"BSTAR":0.00032650966,"MEAN_MOTION_DOT":4.452e-5,"MEAN_MOTION_DDOT":0},{"OBJECT_NAME":"STARLINK-5913","OBJECT_ID":"2023-037Z","EPOCH":"2026-03-09T22:05:21.587136","MEAN_MOTION":14.98326194,"ECCENTRICITY":0.00025738,"INCLINATION":69.9984,"RA_OF_ASC_NODE":283.9196,"ARG_OF_PERICENTER":263.3203,"MEAN_ANOMALY":96.7663,"EPHEMERIS_TYPE":0,"CLASSIFICATION_TYPE":"U","NORAD_CAT_ID":55937,"ELEMENT_SET_NO":999,"REV_AT_EPOCH":16401,"BSTAR":-1.3971877e-5,"MEAN_MOTION_DOT":-2.6e-6,"MEAN_MOTION_DDOT":0}]
